$$SOE
2460154.500000000, A.D. 2023-Jul-29 00:00:00.0000, 3.812499157654267E+08, 1.000405693619941E+08, -3.140114287213442E+07,
2460161.500000000, A.D. 2023-Aug-05 00:00:00.0000, 3.771017998309438E+08, 1.099697786030228E+08, -3.373771846882779E+07,
2460168.500000000, A.D. 2023-Aug-12 00:00:00.0000, 3.726551203624565E+08, 1.198120744746625E+08, -3.604754993139932E+07,
2460175.500000000, A.D. 2023-Aug-19 00:00:00.0000, 3.679107867599621E+08, 1.295588189301254E+08, -3.832855229887808E+07,
2460182.500000000, A.D. 2023-Aug-26 00:00:00.0000, 3.628699664596413E+08, 1.392012964373932E+08, -4.057862681910136E+07,
2460189.500000000, A.D. 2023-Sep-02 00:00:00.0000, 3.575340931131319E+08, 1.487307200059336E+08, -4.279566257907615E+07,
2460196.500000000, A.D. 2023-Sep-09 00:00:00.0000, 3.519048747973731E+08, 1.581382376544541E+08, -4.497753828149424E+07,
2460203.500000000, A.D. 2023-Sep-16 00:00:00.0000, 3.459843023958432E+08, 1.674149392836313E+08, -4.712212419290575E+07,
2460210.500000000, A.D. 2023-Sep-23 00:00:00.0000, 3.397746585364459E+08, 1.765518642587211E+08, -4.922728428327039E+07,
2460217.500000000, A.D. 2023-Sep-30 00:00:00.0000, 3.332785267068061E+08, 1.855400109070283E+08, -5.129087843161963E+07,
2460224.500000000, A.D. 2023-Oct-07 00:00:00.0000, 3.264987981472681E+08, 1.943703474054853E+08, -5.331076452759408E+07,
2460231.500000000, A.D. 2023-Oct-14 00:00:00.0000, 3.194386775206434E+08, 2.030338207664766E+08, -5.528480083731566E+07,
2460238.500000000, A.D. 2023-Oct-21 00:00:00.0000, 3.121016905450761E+08, 2.115213655400066E+08, -5.721084880117495E+07,
2460245.500000000, A.D. 2023-Oct-28 00:00:00.0000, 3.044916921181354E+08, 2.198239145051555E+08, -5.908677594936835E+07,
2460252.500000000, A.D. 2023-Nov-04 00:00:00.0000, 2.966128736340110E+08, 2.279324105908989E+08, -6.091045888437937E+07,
2460259.500000000, A.D. 2023-Nov-11 00:00:00.0000, 2.884697696204477E+08, 2.358378194321519E+08, -6.267978639582250E+07,
2460266.500000000, A.D. 2023-Nov-18 00:00:00.0000, 2.800672638593445E+08, 2.435311424987207E+08, -6.439266273195809E+07,
2460273.500000000, A.D. 2023-Nov-25 00:00:00.0000, 2.714105950047611E+08, 2.510034308190263E+08, -6.604701103079274E+07,
2460280.500000000, A.D. 2023-Dec-02 00:00:00.0000, 2.625053616655246E+08, 2.582457992836357E+08, -6.764077691185069E+07,
2460287.500000000, A.D. 2023-Dec-09 00:00:00.0000, 2.533575269682005E+08, 2.652494414619011E+08, -6.917193223767024E+07,
2460294.500000000, A.D. 2023-Dec-16 00:00:00.0000, 2.439734228253735E+08, 2.720056449316898E+08, -7.063847906689548E+07,
2460301.500000000, A.D. 2023-Dec-23 00:00:00.0000, 2.343597541950278E+08, 2.785058077902648E+08, -7.203845377039367E+07,
2460308.500000000, A.D. 2023-Dec-30 00:00:00.0000, 2.245236019242882E+08, 2.847414573658394E+08, -7.336993109427297E+07,
2460315.500000000, A.D. 2024-Jan-06 00:00:00.0000, 2.144724223325951E+08, 2.907042687366886E+08, -7.463102818971451E+07,
2460322.500000000, A.D. 2024-Jan-13 00:00:00.0000, 2.042140466413797E+08, 2.963860812198505E+08, -7.581990904013668E+07,
2460329.500000000, A.D. 2024-Jan-20 00:00:00.0000, 1.937566814111409E+08, 3.017789158697920E+08, -7.693478913599756E+07,
2460336.500000000, A.D. 2024-Jan-27 00:00:00.0000, 1.831089078899208E+08, 3.068749945858712E+08, -7.797394014387470E+07,
2460343.500000000, A.D. 2024-Feb-03 00:00:00.0000, 1.722796797792203E+08, 3.116667598228688E+08, -7.893569459288022E+07,
2460350.500000000, A.D. 2024-Feb-10 00:00:00.0000, 1.612783196330310E+08, 3.161468945503497E+08, -7.981845061143766E+07,
2460357.500000000, A.D. 2024-Feb-17 00:00:00.0000, 1.501145139706959E+08, 3.203083423985822E+08, -8.062067670871735E+07,
2460364.500000000, A.D. 2024-Feb-24 00:00:00.0000, 1.387983070857086E+08, 3.241443279285830E+08, -8.134091658336589E+07,
2460371.500000000, A.D. 2024-Mar-02 00:00:00.0000, 1.273400935308846E+08, 3.276483769097497E+08, -8.197779394376275E+07,
2460378.500000000, A.D. 2024-Mar-09 00:00:00.0000, 1.157506093754424E+08, 3.308143364518871E+08, -8.253001733504510E+07,
2460385.500000000, A.D. 2024-Mar-16 00:00:00.0000, 1.040409225927904E+08, 3.336363950933934E+08, -8.299638496941957E+07,
2460392.500000000, A.D. 2024-Mar-23 00:00:00.0000, 9.222242244839147E+07, 3.361091038541256E+08, -8.337578943567197E+07,
2460399.500000000, A.D. 2024-Mar-30 00:00:00.0000, 8.030680562903517E+07, 3.382273981149297E+08, -8.366722205742046E+07,
2460406.500000000, A.D. 2024-Apr-06 00:00:00.0000, 6.830605935412689E+07, 3.399866168387886E+08, -8.386977716780792E+07,
2460413.500000000, A.D. 2024-Apr-13 00:00:00.0000, 5.623244501603776E+07, 3.413825198600663E+08, -8.398265653160331E+07,
2460420.500000000, A.D. 2024-Apr-20 00:00:00.0000, 4.409848141110470E+07, 3.424113058022259E+08, -8.400517358233444E+07,
2460427.500000000, A.D. 2024-Apr-27 00:00:00.0000, 3.191692606589404E+07, 3.430696299385135E+08, -8.393675735104597E+07,
2460434.500000000, A.D. 2024-May-04 00:00:00.0000, 1.970075477786110E+07, 3.433546211690950E+08, -8.377695612232774E+07,
2460441.500000000, A.D. 2024-May-11 00:00:00.0000, 7.463139652485853E+06, 3.432638978914906E+08, -8.352544081896514E+07,
2460448.500000000, A.D. 2024-May-18 00:00:00.0000, -4.782574224759250E+06, 3.427955826664367E+08, -8.318200809300253E+07,
2460455.500000000, A.D. 2024-May-25 00:00:00.0000, -1.702289338793004E+07, 3.419483155555939E+08, -8.274658309920511E+07,
2460462.500000000, A.D. 2024-Jun-01 00:00:00.0000, -2.924420172003455E+07, 3.407212659615127E+08, -8.221922193562543E+07,
2460469.500000000, A.D. 2024-Jun-08 00:00:00.0000, -4.143278697135980E+07, 3.391141428400813E+08, -8.160011375174078E+07,
2460476.500000000, A.D. 2024-Jun-15 00:00:00.0000, -5.357486756004483E+07, 3.371272037303128E+08, -8.088958249379405E+07,
2460483.500000000, A.D. 2024-Jun-22 00:00:00.0000, -6.565662054016466E+07, 3.347612636846187E+08, -8.008808807854769E+07,
2460490.500000000, A.D. 2024-Jun-29 00:00:00.0000, -7.766421272512516E+07, 3.320177021904232E+08, -7.919622692814574E+07,
2460497.500000000, A.D. 2024-Jul-06 00:00:00.0000, -8.958383218566774E+07, 3.288984655257623E+08, -7.821473228704232E+07,
2460504.500000000, A.D. 2024-Jul-13 00:00:00.0000, -1.014017180398229E+08, 3.254060673104298E+08, -7.714447425580545E+07,
2460511.500000000, A.D. 2024-Jul-20 00:00:00.0000, -1.131041903731998E+08, 3.215435883608475E+08, -7.598645926192711E+07,
2460518.500000000, A.D. 2024-Jul-27 00:00:00.0000, -1.246776807875633E+08, 3.173146748590090E+08, -7.474182898376168E+07,
2460525.500000000, A.D. 2024-Aug-03 00:00:00.0000, -1.361087631414592E+08, 3.127235344433675E+08, -7.341185878358351E+07,
2460532.500000000, A.D. 2024-Aug-10 00:00:00.0000, -1.473841841502234E+08, 3.077749302136853E+08, -7.199795566810322E+07,
2460539.500000000, A.D. 2024-Aug-17 00:00:00.0000, -1.584908936304617E+08, 3.024741726815544E+08, -7.050165578425235E+07,
2460546.500000000, A.D. 2024-Aug-24 00:00:00.0000, -1.694160741953031E+08, 2.968271096687096E+08, -6.892462146304047E+07,
2460553.500000000, A.D. 2024-Aug-31 00:00:00.0000, -1.801471701222529E+08, 2.908401141310380E+08, -6.726863783920436E+07,
2460560.500000000, A.D. 2024-Sep-07 00:00:00.0000, -1.906719148703943E+08, 2.845200700889524E+08, -6.553560908565858E+07,
2460567.500000000, A.D. 2024-Sep-14 00:00:00.0000, -2.009783570111523E+08, 2.778743577291309E+08, -6.372755420892578E+07,
2460574.500000000, A.D. 2024-Sep-21 00:00:00.0000, -2.110548864600096E+08, 2.709108381761322E+08, -6.184660221034257E+07,
2460581.500000000, A.D. 2024-Sep-28 00:00:00.0000, -2.208902613595713E+08, 2.636378348066731E+08, -5.989498685918145E+07,
2460588.500000000, A.D. 2024-Oct-05 00:00:00.0000, -2.304736318140144E+08, 2.560641112117626E+08, -5.787504143949293E+07,
2460595.500000000, A.D. 2024-Oct-12 00:00:00.0000, -2.397945607266415E+08, 2.481988489015322E+08, -5.578919322448821E+07,
2460602.500000000, A.D. 2024-Oct-19 00:00:00.0000, -2.488430433953401E+08, 2.400516246149384E+08, -5.363995757591487E+07,
2460609.500000000, A.D. 2024-Oct-26 00:00:00.0000, -2.576095258102031E+08, 2.316323865717442E+08, -5.142993176610582E+07,
2460616.500000000, A.D. 2024-Nov-02 00:00:00.0000, -2.660849213222913E+08, 2.229514296604637E+08, -4.916178859372997E+07,
2460623.500000000, A.D. 2024-Nov-09 00:00:00.0000, -2.742606255291391E+08, 2.140193697298047E+08, -4.683826983693375E+07,
2460630.500000000, A.D. 2024-Nov-16 00:00:00.0000, -2.821285293085640E+08, 2.048471171342871E+08, -4.446217958346367E+07,
2460637.500000000, A.D. 2024-Nov-23 00:00:00.0000, -2.896810299262865E+08, 1.954458496362042E+08, -4.203637748349535E+07,
2460644.500000000, A.D. 2024-Nov-30 00:00:00.0000, -2.969110399961548E+08, 1.858269847731440E+08, -3.956377198471559E+07,
2460651.500000000, A.D. 2024-Dec-07 00:00:00.0000, -3.038119938748935E+08, 1.760021522614400E+08, -3.704731358990337E+07,
2460658.500000000, A.D. 2024-Dec-14 00:00:00.0000, -3.103778521962203E+08, 1.659831678054565E+08, -3.448998800911315E+07,
2460665.500000000, A.D. 2024-Dec-21 00:00:00.0000, -3.166031068956479E+08, 1.557820072149289E+08, -3.189480913014289E+07,
2460672.500000000, A.D. 2024-Dec-28 00:00:00.0000, -3.224827847969701E+08, 1.454107780040223E+08, -2.926481226378936E+07,
2460679.500000000, A.D. 2025-Jan-04 00:00:00.0000, -3.280124472102204E+08, 1.348816909781363E+08, -2.660304773645287E+07,
2460686.500000000, A.D. 2025-Jan-11 00:00:00.0000, -3.331881874245642E+08, 1.242070335848212E+08, -2.391257455475630E+07,
2460693.500000000, A.D. 2025-Jan-18 00:00:00.0000, -3.380066270915661E+08, 1.133991442231302E+08, -2.119645416062969E+07,
2460700.500000000, A.D. 2025-Jan-25 00:00:00.0000, -3.424649113390516E+08, 1.024703871436960E+08, -1.845774436224107E+07,
2460707.500000000, A.D. 2025-Feb-01 00:00:00.0000, -3.465607025143507E+08, 9.143312800456503E+07, -1.569949348144424E+07,
2460714.500000000, A.D. 2025-Feb-08 00:00:00.0000, -3.502921725932112E+08, 8.029971018643622E+07, -1.292473473978698E+07,
2460721.500000000, A.D. 2025-Feb-15 00:00:00.0000, -3.536579943258330E+08, 6.908243192122252E+07, -1.013648090321737E+07,
$$EOE